{
  "type": "FeatureCollection",
  "features": [
    {
      "type": "Feature",
      "properties": {
        "norad_id": 40118,
        "name": "GAOFEN-2",
        "group": "resource",
        "lat": -76.20371626933672,
        "lon": -157.4577604027204,
        "alt_km": 640.8040525688502,
        "timestamp": "2025-12-24T11:32:59.661001+00:00",
        "meta_object_name": "GAOFEN-2",
        "meta_object_id": "2014-049A",
        "meta_epoch": "2025-12-24T03:53:51.296928",
        "meta_mean_motion": 14.80626723,
        "meta_eccentricity": 0.0008754,
        "meta_inclination": 98.0368,
        "meta_ra_of_asc_node": 57.3502,
        "meta_arg_of_pericenter": 81.4594,
        "meta_mean_anomaly": 278.761,
        "meta_ephemeris_type": 0,
        "meta_classification_type": "U",
        "meta_norad_cat_id": 40118,
        "meta_element_set_no": 999,
        "meta_rev_at_epoch": 61333,
        "meta_bstar": 6.6621e-05,
        "meta_mean_motion_dot": 4.58e-06,
        "meta_mean_motion_ddot": 0,
        "tle_line1": "1 40118U 14049A   25358.16239927  .00000458  00000+0  66621-4 0  9995",
        "tle_line2": "2 40118  98.0368  57.3502 0008754  81.4594 278.7610 14.80626723613333"
      },
      "geometry": {
        "type": "Point",
        "coordinates": [
          -157.4577604027204,
          -76.20371626933672
        ]
      }
    },
    {
      "type": "Feature",
      "properties": {
        "norad_id": 40143,
        "name": "YAOGAN-21",
        "group": "resource",
        "lat": -60.34117000613677,
        "lon": -151.49573895964227,
        "alt_km": 504.76125372192837,
        "timestamp": "2025-12-24T11:32:59.661012+00:00",
        "meta_object_name": "YAOGAN-21",
        "meta_object_id": "2014-053A",
        "meta_epoch": "2025-12-24T04:11:25.892736",
        "meta_mean_motion": 15.2378408,
        "meta_eccentricity": 0.0008576,
        "meta_inclination": 97.1737,
        "meta_ra_of_asc_node": 40.9896,
        "meta_arg_of_pericenter": 4.3702,
        "meta_mean_anomaly": 355.7609,
        "meta_ephemeris_type": 0,
        "meta_classification_type": "U",
        "meta_norad_cat_id": 40143,
        "meta_element_set_no": 999,
        "meta_rev_at_epoch": 62828,
        "meta_bstar": 0.00014362,
        "meta_mean_motion_dot": 3.391e-05,
        "meta_mean_motion_ddot": 0,
        "tle_line1": "1 40143U 14053A   25358.17460524  .00003391  00000+0  14362-3 0  9991",
        "tle_line2": "2 40143  97.1737  40.9896 0008576   4.3702 355.7609 15.23784080628285"
      },
      "geometry": {
        "type": "Point",
        "coordinates": [
          -151.49573895964227,
          -60.34117000613677
        ]
      }
    },
    {
      "type": "Feature",
      "properties": {
        "norad_id": 40275,
        "name": "YAOGAN-22",
        "group": "resource",
        "lat": -67.18412008204645,
        "lon": 168.8908366330914,
        "alt_km": 1207.4385055466537,
        "timestamp": "2025-12-24T11:32:59.661023+00:00",
        "meta_object_name": "YAOGAN-22",
        "meta_object_id": "2014-063A",
        "meta_epoch": "2025-12-24T02:46:40.213344",
        "meta_mean_motion": 13.15523047,
        "meta_eccentricity": 0.0006076,
        "meta_inclination": 100.7429,
        "meta_ra_of_asc_node": 141.6962,
        "meta_arg_of_pericenter": 220.9398,
        "meta_mean_anomaly": 139.1257,
        "meta_ephemeris_type": 0,
        "meta_classification_type": "U",
        "meta_norad_cat_id": 40275,
        "meta_element_set_no": 999,
        "meta_rev_at_epoch": 53679,
        "meta_bstar": 6.6523e-05,
        "meta_mean_motion_dot": -2.2e-07,
        "meta_mean_motion_ddot": 0,
        "tle_line1": "1 40275U 14063A   25358.11574321 -.00000022  00000+0  66523-4 0  9999",
        "tle_line2": "2 40275 100.7429 141.6962 0006076 220.9398 139.1257 13.15523047536793"
      },
      "geometry": {
        "type": "Point",
        "coordinates": [
          168.8908366330914,
          -67.18412008204645
        ]
      }
    },
    {
      "type": "Feature",
      "properties": {
        "norad_id": 40298,
        "name": "ASNARO",
        "group": "resource",
        "lat": 63.69122454355241,
        "lon": -90.69552635175894,
        "alt_km": 496.7925566249078,
        "timestamp": "2025-12-24T11:32:59.661033+00:00",
        "meta_object_name": "ASNARO",
        "meta_object_id": "2014-070A",
        "meta_epoch": "2025-12-24T04:43:25.972896",
        "meta_mean_motion": 15.19725139,
        "meta_eccentricity": 0.0005848,
        "meta_inclination": 97.364,
        "meta_ra_of_asc_node": 73.8634,
        "meta_arg_of_pericenter": 92.0967,
        "meta_mean_anomaly": 268.0937,
        "meta_ephemeris_type": 0,
        "meta_classification_type": "U",
        "meta_norad_cat_id": 40298,
        "meta_element_set_no": 999,
        "meta_rev_at_epoch": 61743,
        "meta_bstar": 0.0006121,
        "meta_mean_motion_dot": 0.0001303,
        "meta_mean_motion_ddot": 0,
        "tle_line1": "1 40298U 14070A   25358.19682839  .00013030  00000+0  61210-3 0  9993",
        "tle_line2": "2 40298  97.3640  73.8634 0005848  92.0967 268.0937 15.19725139617432"
      },
      "geometry": {
        "type": "Point",
        "coordinates": [
          -90.69552635175894,
          63.69122454355241
        ]
      }
    },
    {
      "type": "Feature",
      "properties": {
        "norad_id": 40310,
        "name": "YAOGAN-24",
        "group": "resource",
        "lat": 54.51296979646906,
        "lon": 118.08107228078693,
        "alt_km": 628.9927763610667,
        "timestamp": "2025-12-24T11:32:59.661047+00:00",
        "meta_object_name": "YAOGAN-24",
        "meta_object_id": "2014-072A",
        "meta_epoch": "2025-12-24T04:47:35.452896",
        "meta_mean_motion": 14.76199097,
        "meta_eccentricity": 0.0015182,
        "meta_inclination": 98.1232,
        "meta_ra_of_asc_node": 129.3547,
        "meta_arg_of_pericenter": 103.9176,
        "meta_mean_anomaly": 256.3723,
        "meta_ephemeris_type": 0,
        "meta_classification_type": "U",
        "meta_norad_cat_id": 40310,
        "meta_element_set_no": 999,
        "meta_rev_at_epoch": 59790,
        "meta_bstar": 0.0001617,
        "meta_mean_motion_dot": 1.068e-05,
        "meta_mean_motion_ddot": 0,
        "tle_line1": "1 40310U 14072A   25358.19971589  .00001068  00000+0  16170-3 0  9996",
        "tle_line2": "2 40310  98.1232 129.3547 0015182 103.9176 256.3723 14.76199097597901"
      },
      "geometry": {
        "type": "Point",
        "coordinates": [
          118.08107228078693,
          54.51296979646906
        ]
      }
    },
    {
      "type": "Feature",
      "properties": {
        "norad_id": 40336,
        "name": "CBERS 4",
        "group": "resource",
        "lat": -58.61550551748766,
        "lon": -137.79971303086543,
        "alt_km": 781.445144148126,
        "timestamp": "2025-12-24T11:32:59.661060+00:00",
        "meta_object_name": "CBERS 4",
        "meta_object_id": "2014-079A",
        "meta_epoch": "2025-12-24T05:25:08.064192",
        "meta_mean_motion": 14.35521552,
        "meta_eccentricity": 0.000186,
        "meta_inclination": 98.3291,
        "meta_ra_of_asc_node": 55.8489,
        "meta_arg_of_pericenter": 100.6054,
        "meta_mean_anomaly": 259.5342,
        "meta_ephemeris_type": 0,
        "meta_classification_type": "U",
        "meta_norad_cat_id": 40336,
        "meta_element_set_no": 999,
        "meta_rev_at_epoch": 57885,
        "meta_bstar": 1.8279e-05,
        "meta_mean_motion_dot": 1.1e-07,
        "meta_mean_motion_ddot": 0,
        "tle_line1": "1 40336U 14079A   25358.22578778  .00000011  00000+0  18279-4 0  9998",
        "tle_line2": "2 40336  98.3291  55.8489 0001860 100.6054 259.5342 14.35521552578856"
      },
      "geometry": {
        "type": "Point",
        "coordinates": [
          -137.79971303086543,
          -58.61550551748766
        ]
      }
    },
    {
      "type": "Feature",
      "properties": {
        "norad_id": 40362,
        "name": "YAOGAN-26",
        "group": "resource",
        "lat": -78.73923432484649,
        "lon": 140.21734921936397,
        "alt_km": 454.4850514151967,
        "timestamp": "2025-12-24T11:32:59.661071+00:00",
        "meta_object_name": "YAOGAN-26",
        "meta_object_id": "2014-088A",
        "meta_epoch": "2025-12-24T04:10:46.076160",
        "meta_mean_motion": 15.39692501,
        "meta_eccentricity": 0.0004608,
        "meta_inclination": 97.064,
        "meta_ra_of_asc_node": 358.4427,
        "meta_arg_of_pericenter": 354.8985,
        "meta_mean_anomaly": 5.2214,
        "meta_ephemeris_type": 0,
        "meta_classification_type": "U",
        "meta_norad_cat_id": 40362,
        "meta_element_set_no": 999,
        "meta_rev_at_epoch": 61070,
        "meta_bstar": 0.00056183,
        "meta_mean_motion_dot": 0.00022155,
        "meta_mean_motion_ddot": 0,
        "tle_line1": "1 40362U 14088A   25358.17414440  .00022155  00000+0  56183-3 0  9994",
        "tle_line2": "2 40362  97.0640 358.4427 0004608 354.8985   5.2214 15.39692501610705"
      },
      "geometry": {
        "type": "Point",
        "coordinates": [
          140.21734921936397,
          -78.73923432484649
        ]
      }
    }
  ]
}